[
    {
        "Altitude(m)": 607886.7408990136,
        "Argument of Periapsis(deg)": 0.0,
        "Eccentricity": 0.0,
        "Inclination(deg)": 60.0,
        "Latitude(deg)": 40.99857759786005,
        "Longitude(deg)": 79.97292011006624,
        "Mean Anomaly(deg)": 49.09089999999999,
        "RAAN(deg)": 150.0,
        "Satellite Name": "Test1 663",
        "Satellite Number": 663,
        "Semi-Major Axis(m)": 6980739.136638005,
        "Time(s)": 0
    },
    {
        "Altitude(m)": 607987.6552707357,
        "Argument of Periapsis(deg)": 0.00010418945913296404,
        "Eccentricity": 0.0,
        "Inclination(deg)": 60.0,
        "Latitude(deg)": 41.463668261541194,
        "Longitude(deg)": 80.4771480369735,
        "Mean Anomaly(deg)": 49.71100614546182,
        "RAAN(deg)": 149.99957995086027,
        "Satellite Name": "Test1 663",
        "Satellite Number": 663,
        "Semi-Major Axis(m)": 6980739.136638005,
        "Time(s)": 10
    }
]